{"spkid": "20341843", "covariance": {"data": [["3.066233464788055E-16", "-2.908676898747235E-16", "9.681613084267291E-14", "1.823959907024975E-14", "7.876033652660911E-14", "-7.190386182064725E-15", "5.04037192280253E-23"], ["-2.908676898747235E-16", "2.761625342084789E-16", "-9.461297534461909E-14", "-1.753857412927918E-14", "-7.477110996789473E-14", "7.368986407264753E-15", "-4.419065485690179E-23"], ["9.681613084267291E-14", "-9.461297534461909E-14", "7.048881505706916E-11", "5.776819296845293E-12", "3.54444844312014E-11", "-9.552262991311207E-12", "-2.678608405707395E-20"], ["1.823959907024975E-14", "-1.753857412927918E-14", "5.776819296845293E-12", "2.304367636160863E-12", "1.333094240732305E-12", "-5.754210770377145E-13", "-2.100540549835712E-22"], ["7.876033652660911E-14", "-7.477110996789473E-14", "3.54444844312014E-11", "1.333094240732305E-12", "3.25510887742862E-11", "-3.22736389895712E-12", "1.082238254091707E-20"], ["-7.190386182064725E-15", "7.368986407264753E-15", "-9.552262991311207E-12", "-5.754210770377145E-13", "-3.22736389895712E-12", "2.098310768823983E-12", "7.197991308170158E-21"], ["5.04037192280253E-23", "-4.419065485690179E-23", "-2.678608405707395E-20", "-2.100540549835712E-22", "1.082238254091707E-20", "7.197991308170158E-21", "6.29054364102053E-29"]], "elements": [{"value": ".08345224018240011", "title": "eccentricity", "units": null, "name": "e", "sigma": 1.75106637932091e-08, "label": "e"}, {"label": "q", "name": "q", "sigma": 1.66181387107124e-08, "title": "perihelion distance", "value": ".8783064681390266", "units": "au"}, {"label": "tp", "sigma": 8.39576173179475e-06, "name": "tp", "value": "2458139.908265339185", "title": "time of perihelion passage", "units": "TDB"}, {"units": "deg", "title": "longitude of the ascending node", "value": "93.3884519776299", "sigma": 1.51801437284397e-06, "name": "om", "label": "node"}, {"name": "w", "sigma": 5.70535614789175e-06, "units": "deg", "title": "argument of perihelion", "value": "234.8326082807916", "label": "peri"}, {"name": "i", "sigma": 1.44855471723507e-06, "title": "inclination", "value": "7.43693356075285", "units": "deg", "label": "i"}], "labels": ["e", "q", "tp", "node", "peri", "i", "A2"], "epoch": "2458136.5"}, "elements": [{"label": "e", "sigma": "1.7782E-8", "name": "e", "title": "eccentricity", "value": ".08289135234564231", "units": null}, {"label": "a", "sigma": "3.1421E-9", "name": "a", "units": "au", "value": ".9597666157323917", "title": "semi-major axis"}, {"label": "q", "name": "q", "sigma": "1.6406E-8", "units": "au", "title": "perihelion distance", "value": ".8802102630181334"}, {"value": "7.447864888634731", "title": "inclination; angle with respect to x-y ecliptic plane", "units": "deg", "sigma": "1.449E-6", "name": "i", "label": "i"}, {"title": "longitude of the ascending node", "value": "93.18792074829541", "units": "deg", "name": "om", "sigma": "1.5094E-6", "label": "node"}, {"value": "235.9306323569786", "title": "argument of perihelion", "units": "deg", "sigma": "5.7247E-6", "name": "w", "label": "peri"}, {"label": "M", "title": "mean anomaly", "value": "332.501162376447", "units": "deg", "sigma": "1.0012E-5", "name": "ma"}, {"label": "tp", "units": "TDB", "title": "time of perihelion passage", "value": "2461226.733650111939", "sigma": "9.6247E-6", "name": "tp"}, {"label": "period", "value": "343.4368452071923", "title": "sidereal orbital period", "units": "d", "name": "per", "sigma": "1.6865E-6"}, {"label": "n", "sigma": "5.1476E-9", "name": "n", "value": "1.048227658225824", "title": "mean motion", "units": "deg/d"}, {"label": "Q", "name": "ad", "sigma": "3.4026E-9", "title": "aphelion distance", "value": "1.03932296844665", "units": "au"}], "epoch": "2461200.5"}